{
    "links": {
        "self": "http://www.neowsapp.com/rest/v1/neo/3830871?api_key=iIulBulltgU6a56xZRHN4H3l9WmuAYTsLGpBGhQ2"
    },
    "id": "3830871",
    "neo_reference_id": "3830871",
    "name": "(2018 ST1)",
    "designation": "2018 ST1",
    "nasa_jpl_url": "http://ssd.jpl.nasa.gov/sbdb.cgi?sstr=3830871",
    "absolute_magnitude_h": 25.1,
    "estimated_diameter": {
        "kilometers": {
            "estimated_diameter_min": 0.0253837029,
            "estimated_diameter_max": 0.0567596853
        },
        "meters": {
            "estimated_diameter_min": 25.3837029364,
            "estimated_diameter_max": 56.7596852866
        },
        "miles": {
            "estimated_diameter_min": 0.0157726969,
            "estimated_diameter_max": 0.0352688224
        },
        "feet": {
            "estimated_diameter_min": 83.279867942,
            "estimated_diameter_max": 186.2194458756
        }
    },
    "is_potentially_hazardous_asteroid": false,
    "close_approach_data": [
        {
            "close_approach_date": "2018-09-24",
            "close_approach_date_full": "2018-Sep-24 06:38",
            "epoch_date_close_approach": 1537771080000,
            "relative_velocity": {
                "kilometers_per_second": "12.074962991",
                "kilometers_per_hour": "43469.8667677033",
                "miles_per_hour": "27010.4847146321"
            },
            "miss_distance": {
                "astronomical": "0.0110612943",
                "lunar": "4.3028434827",
                "kilometers": "1654746.066723141",
                "miles": "1028211.5270597058"
            },
            "orbiting_body": "Earth"
        }
    ],
    "orbital_data": {
        "orbit_id": "1",
        "orbit_determination_date": "2018-09-25 03:42:06",
        "first_observation_date": "2018-09-22",
        "last_observation_date": "2018-09-24",
        "data_arc_in_days": 2,
        "observations_used": 45,
        "orbit_uncertainty": "7",
        "minimum_orbit_intersection": ".0078773",
        "jupiter_tisserand_invariant": "3.198",
        "epoch_osculation": "2459000.5",
        "eccentricity": ".6286400959410586",
        "semi_major_axis": "2.435470698450389",
        "inclination": "3.678444065011274",
        "ascending_node_longitude": "189.0215240917528",
        "orbital_period": "1388.266328243832",
        "perihelion_distance": ".9044361649148993",
        "perihelion_argument": "214.4313748790807",
        "aphelion_distance": "3.966505231985878",
        "perihelion_time": "2458416.701613226194",
        "mean_anomaly": "151.3884007432734",
        "mean_motion": ".2593162368602592",
        "equinox": "J2000",
        "orbit_class": {
            "orbit_class_type": "APO",
            "orbit_class_description": "Near-Earth asteroid orbits which cross the Earth’s orbit similar to that of 1862 Apollo",
            "orbit_class_range": "a (semi-major axis) > 1.0 AU; q (perihelion) < 1.017 AU"
        }
    },
    "is_sentry_object": false
}